<?xml version="1.0" encoding="UTF-8"?>
<ndm xmlns:xsi="http://www.w3.org/2001/XMLSchema-instance" xsi:noNamespaceSchemaLocation="https://sanaregistry.org/r/ndmxml_unqualified/ndmxml-2.0.0-master-2.0.xsd">
<omm id="CCSDS_OMM_VERS" version="2.0">
<header><CREATION_DATE/><ORIGINATOR/></header><body><segment><metadata><OBJECT_NAME>KUIPER-00163</OBJECT_NAME><OBJECT_ID>2025-217R</OBJECT_ID><CENTER_NAME>EARTH</CENTER_NAME><REF_FRAME>TEME</REF_FRAME><TIME_SYSTEM>UTC</TIME_SYSTEM><MEAN_ELEMENT_THEORY>SGP4</MEAN_ELEMENT_THEORY></metadata><data><meanElements><EPOCH>2025-10-25T06:13:38.417952</EPOCH><MEAN_MOTION>15.35402585</MEAN_MOTION><ECCENTRICITY>.000689</ECCENTRICITY><INCLINATION>51.8629</INCLINATION><RA_OF_ASC_NODE>299.0518</RA_OF_ASC_NODE><ARG_OF_PERICENTER>209.6563</ARG_OF_PERICENTER><MEAN_ANOMALY>150.4033</MEAN_ANOMALY></meanElements><tleParameters><EPHEMERIS_TYPE>0</EPHEMERIS_TYPE><CLASSIFICATION_TYPE>U</CLASSIFICATION_TYPE><NORAD_CAT_ID>65777</NORAD_CAT_ID><ELEMENT_SET_NO>999</ELEMENT_SET_NO><REV_AT_EPOCH>458</REV_AT_EPOCH><BSTAR>.59259E-3</BSTAR><MEAN_MOTION_DOT>.20377E-3</MEAN_MOTION_DOT><MEAN_MOTION_DDOT>0</MEAN_MOTION_DDOT></tleParameters></data></segment></body></omm>
<omm id="CCSDS_OMM_VERS" version="2.0">
<header><CREATION_DATE/><ORIGINATOR/></header><body><segment><metadata><OBJECT_NAME>KUIPER-00165</OBJECT_NAME><OBJECT_ID>2025-217S</OBJECT_ID><CENTER_NAME>EARTH</CENTER_NAME><REF_FRAME>TEME</REF_FRAME><TIME_SYSTEM>UTC</TIME_SYSTEM><MEAN_ELEMENT_THEORY>SGP4</MEAN_ELEMENT_THEORY></metadata><data><meanElements><EPOCH>2025-10-25T07:12:19.884096</EPOCH><MEAN_MOTION>15.36738594</MEAN_MOTION><ECCENTRICITY>.0003913</ECCENTRICITY><INCLINATION>51.8703</INCLINATION><RA_OF_ASC_NODE>298.5988</RA_OF_ASC_NODE><ARG_OF_PERICENTER>161.5555</ARG_OF_PERICENTER><MEAN_ANOMALY>198.5574</MEAN_ANOMALY></meanElements><tleParameters><EPHEMERIS_TYPE>0</EPHEMERIS_TYPE><CLASSIFICATION_TYPE>U</CLASSIFICATION_TYPE><NORAD_CAT_ID>65778</NORAD_CAT_ID><ELEMENT_SET_NO>999</ELEMENT_SET_NO><REV_AT_EPOCH>459</REV_AT_EPOCH><BSTAR>.10564E-2</BSTAR><MEAN_MOTION_DOT>.38319E-3</MEAN_MOTION_DOT><MEAN_MOTION_DDOT>0</MEAN_MOTION_DDOT></tleParameters></data></segment></body></omm>
<omm id="CCSDS_OMM_VERS" version="2.0">
<header><CREATION_DATE/><ORIGINATOR/></header><body><segment><metadata><OBJECT_NAME>KUIPER-00166</OBJECT_NAME><OBJECT_ID>2025-217T</OBJECT_ID><CENTER_NAME>EARTH</CENTER_NAME><REF_FRAME>TEME</REF_FRAME><TIME_SYSTEM>UTC</TIME_SYSTEM><MEAN_ELEMENT_THEORY>SGP4</MEAN_ELEMENT_THEORY></metadata><data><meanElements><EPOCH>2025-10-25T07:03:45.900864</EPOCH><MEAN_MOTION>15.37051048</MEAN_MOTION><ECCENTRICITY>.0003479</ECCENTRICITY><INCLINATION>51.8715</INCLINATION><RA_OF_ASC_NODE>298.5605</RA_OF_ASC_NODE><ARG_OF_PERICENTER>137.2751</ARG_OF_PERICENTER><MEAN_ANOMALY>222.8507</MEAN_ANOMALY></meanElements><tleParameters><EPHEMERIS_TYPE>0</EPHEMERIS_TYPE><CLASSIFICATION_TYPE>U</CLASSIFICATION_TYPE><NORAD_CAT_ID>65779</NORAD_CAT_ID><ELEMENT_SET_NO>999</ELEMENT_SET_NO><REV_AT_EPOCH>459</REV_AT_EPOCH><BSTAR>.12974E-2</BSTAR><MEAN_MOTION_DOT>.47689E-3</MEAN_MOTION_DOT><MEAN_MOTION_DDOT>0</MEAN_MOTION_DDOT></tleParameters></data></segment></body></omm>
<omm id="CCSDS_OMM_VERS" version="2.0">
<header><CREATION_DATE/><ORIGINATOR/></header><body><segment><metadata><OBJECT_NAME>KUIPER-00167</OBJECT_NAME><OBJECT_ID>2025-217U</OBJECT_ID><CENTER_NAME>EARTH</CENTER_NAME><REF_FRAME>TEME</REF_FRAME><TIME_SYSTEM>UTC</TIME_SYSTEM><MEAN_ELEMENT_THEORY>SGP4</MEAN_ELEMENT_THEORY></metadata><data><meanElements><EPOCH>2025-10-25T09:07:45.139584</EPOCH><MEAN_MOTION>15.35956019</MEAN_MOTION><ECCENTRICITY>.0005015</ECCENTRICITY><INCLINATION>51.8690</INCLINATION><RA_OF_ASC_NODE>298.3789</RA_OF_ASC_NODE><ARG_OF_PERICENTER>200.7860</ARG_OF_PERICENTER><MEAN_ANOMALY>159.2923</MEAN_ANOMALY></meanElements><tleParameters><EPHEMERIS_TYPE>0</EPHEMERIS_TYPE><CLASSIFICATION_TYPE>U</CLASSIFICATION_TYPE><NORAD_CAT_ID>65780</NORAD_CAT_ID><ELEMENT_SET_NO>999</ELEMENT_SET_NO><REV_AT_EPOCH>460</REV_AT_EPOCH><BSTAR>.10701E-2</BSTAR><MEAN_MOTION_DOT>.37851E-3</MEAN_MOTION_DOT><MEAN_MOTION_DDOT>0</MEAN_MOTION_DDOT></tleParameters></data></segment></body></omm>
<omm id="CCSDS_OMM_VERS" version="2.0">
<header><CREATION_DATE/><ORIGINATOR/></header><body><segment><metadata><OBJECT_NAME>KUIPER-00168</OBJECT_NAME><OBJECT_ID>2025-217V</OBJECT_ID><CENTER_NAME>EARTH</CENTER_NAME><REF_FRAME>TEME</REF_FRAME><TIME_SYSTEM>UTC</TIME_SYSTEM><MEAN_ELEMENT_THEORY>SGP4</MEAN_ELEMENT_THEORY></metadata><data><meanElements><EPOCH>2025-10-25T11:25:46.038720</EPOCH><MEAN_MOTION>15.37674271</MEAN_MOTION><ECCENTRICITY>.0002784</ECCENTRICITY><INCLINATION>51.8732</INCLINATION><RA_OF_ASC_NODE>297.5321</RA_OF_ASC_NODE><ARG_OF_PERICENTER>77.6884</ARG_OF_PERICENTER><MEAN_ANOMALY>282.4414</MEAN_ANOMALY></meanElements><tleParameters><EPHEMERIS_TYPE>0</EPHEMERIS_TYPE><CLASSIFICATION_TYPE>U</CLASSIFICATION_TYPE><NORAD_CAT_ID>65781</NORAD_CAT_ID><ELEMENT_SET_NO>999</ELEMENT_SET_NO><REV_AT_EPOCH>462</REV_AT_EPOCH><BSTAR>.13161E-2</BSTAR><MEAN_MOTION_DOT>.49381E-3</MEAN_MOTION_DOT><MEAN_MOTION_DDOT>0</MEAN_MOTION_DDOT></tleParameters></data></segment></body></omm>
<omm id="CCSDS_OMM_VERS" version="2.0">
<header><CREATION_DATE/><ORIGINATOR/></header><body><segment><metadata><OBJECT_NAME>KUIPER-00169</OBJECT_NAME><OBJECT_ID>2025-217W</OBJECT_ID><CENTER_NAME>EARTH</CENTER_NAME><REF_FRAME>TEME</REF_FRAME><TIME_SYSTEM>UTC</TIME_SYSTEM><MEAN_ELEMENT_THEORY>SGP4</MEAN_ELEMENT_THEORY></metadata><data><meanElements><EPOCH>2025-10-25T07:06:27.209664</EPOCH><MEAN_MOTION>15.36949326</MEAN_MOTION><ECCENTRICITY>.0003239</ECCENTRICITY><INCLINATION>51.8719</INCLINATION><RA_OF_ASC_NODE>298.5727</RA_OF_ASC_NODE><ARG_OF_PERICENTER>150.0249</ARG_OF_PERICENTER><MEAN_ANOMALY>210.0923</MEAN_ANOMALY></meanElements><tleParameters><EPHEMERIS_TYPE>0</EPHEMERIS_TYPE><CLASSIFICATION_TYPE>U</CLASSIFICATION_TYPE><NORAD_CAT_ID>65782</NORAD_CAT_ID><ELEMENT_SET_NO>999</ELEMENT_SET_NO><REV_AT_EPOCH>459</REV_AT_EPOCH><BSTAR>.20354E-2</BSTAR><MEAN_MOTION_DOT>.7506E-3</MEAN_MOTION_DOT><MEAN_MOTION_DDOT>0</MEAN_MOTION_DDOT></tleParameters></data></segment></body></omm>
<omm id="CCSDS_OMM_VERS" version="2.0">
<header><CREATION_DATE/><ORIGINATOR/></header><body><segment><metadata><OBJECT_NAME>KUIPER-00170</OBJECT_NAME><OBJECT_ID>2025-217X</OBJECT_ID><CENTER_NAME>EARTH</CENTER_NAME><REF_FRAME>TEME</REF_FRAME><TIME_SYSTEM>UTC</TIME_SYSTEM><MEAN_ELEMENT_THEORY>SGP4</MEAN_ELEMENT_THEORY></metadata><data><meanElements><EPOCH>2025-10-25T12:12:26.730144</EPOCH><MEAN_MOTION>15.35995594</MEAN_MOTION><ECCENTRICITY>.0005379</ECCENTRICITY><INCLINATION>51.8677</INCLINATION><RA_OF_ASC_NODE>297.7364</RA_OF_ASC_NODE><ARG_OF_PERICENTER>191.6759</ARG_OF_PERICENTER><MEAN_ANOMALY>168.4103</MEAN_ANOMALY></meanElements><tleParameters><EPHEMERIS_TYPE>0</EPHEMERIS_TYPE><CLASSIFICATION_TYPE>U</CLASSIFICATION_TYPE><NORAD_CAT_ID>65783</NORAD_CAT_ID><ELEMENT_SET_NO>999</ELEMENT_SET_NO><REV_AT_EPOCH>462</REV_AT_EPOCH><BSTAR>.80366E-3</BSTAR><MEAN_MOTION_DOT>.28333E-3</MEAN_MOTION_DOT><MEAN_MOTION_DDOT>0</MEAN_MOTION_DDOT></tleParameters></data></segment></body></omm>
<omm id="CCSDS_OMM_VERS" version="2.0">
<header><CREATION_DATE/><ORIGINATOR/></header><body><segment><metadata><OBJECT_NAME>KUIPER-00171</OBJECT_NAME><OBJECT_ID>2025-217Y</OBJECT_ID><CENTER_NAME>EARTH</CENTER_NAME><REF_FRAME>TEME</REF_FRAME><TIME_SYSTEM>UTC</TIME_SYSTEM><MEAN_ELEMENT_THEORY>SGP4</MEAN_ELEMENT_THEORY></metadata><data><meanElements><EPOCH>2025-10-25T12:00:02.998944</EPOCH><MEAN_MOTION>15.40221276</MEAN_MOTION><ECCENTRICITY>.0005005</ECCENTRICITY><INCLINATION>51.8681</INCLINATION><RA_OF_ASC_NODE>297.5736</RA_OF_ASC_NODE><ARG_OF_PERICENTER>185.9340</ARG_OF_PERICENTER><MEAN_ANOMALY>229.1084</MEAN_ANOMALY></meanElements><tleParameters><EPHEMERIS_TYPE>0</EPHEMERIS_TYPE><CLASSIFICATION_TYPE>U</CLASSIFICATION_TYPE><NORAD_CAT_ID>65784</NORAD_CAT_ID><ELEMENT_SET_NO>999</ELEMENT_SET_NO><REV_AT_EPOCH>474</REV_AT_EPOCH><BSTAR>.33784E-1</BSTAR><MEAN_MOTION_DOT>.1533095E-1</MEAN_MOTION_DOT><MEAN_MOTION_DDOT>0</MEAN_MOTION_DDOT></tleParameters></data></segment></body></omm>
<omm id="CCSDS_OMM_VERS" version="2.0">
<header><CREATION_DATE/><ORIGINATOR/></header><body><segment><metadata><OBJECT_NAME>KUIPER-00172</OBJECT_NAME><OBJECT_ID>2025-217Z</OBJECT_ID><CENTER_NAME>EARTH</CENTER_NAME><REF_FRAME>TEME</REF_FRAME><TIME_SYSTEM>UTC</TIME_SYSTEM><MEAN_ELEMENT_THEORY>SGP4</MEAN_ELEMENT_THEORY></metadata><data><meanElements><EPOCH>2025-10-25T06:54:50.010048</EPOCH><MEAN_MOTION>15.37375842</MEAN_MOTION><ECCENTRICITY>.0002891</ECCENTRICITY><INCLINATION>51.8725</INCLINATION><RA_OF_ASC_NODE>298.5195</RA_OF_ASC_NODE><ARG_OF_PERICENTER>122.0887</ARG_OF_PERICENTER><MEAN_ANOMALY>238.0380</MEAN_ANOMALY></meanElements><tleParameters><EPHEMERIS_TYPE>0</EPHEMERIS_TYPE><CLASSIFICATION_TYPE>U</CLASSIFICATION_TYPE><NORAD_CAT_ID>65785</NORAD_CAT_ID><ELEMENT_SET_NO>999</ELEMENT_SET_NO><REV_AT_EPOCH>459</REV_AT_EPOCH><BSTAR>.21194E-2</BSTAR><MEAN_MOTION_DOT>.79305E-3</MEAN_MOTION_DOT><MEAN_MOTION_DDOT>0</MEAN_MOTION_DDOT></tleParameters></data></segment></body></omm>

</ndm>
